0 TITAN 3C TRANSTAGE DEB
1 01685U 65082AY  13282.11358575  .00053774  00000-0  10284-2 0  5306
2 01685 032.2778 298.4666 0003500 296.6825 063.3489 15.46849966589113
0 TITAN 3C TRANSTAGE DEB
1 01685U 65082AY  13282.43622751  .00053731  00000-0  10260-2 0  5319
2 01685 032.2779 296.2941 0003468 300.4705 059.5624 15.46894812589163
0 TITAN 3C TRANSTAGE DEB
1 01685U 65082AY  13283.40410670  .00050468  00000-0  96129-3 0  5326
2 01685 032.2779 289.7768 0003405 310.2576 049.7799 15.46976319589317
0 TITAN 3C TRANSTAGE DEB
1 01685U 65082AY  13284.37193494  .00049849  00000-0  94713-3 0  5334
2 01685 032.2777 283.2593 0003258 321.1844 038.8594 15.47050305589462
0 TITAN 3C TRANSTAGE DEB
1 01685U 65082AY  13285.33971446  .00043172  00000-0  81843-3 0  5346
2 01685 032.2773 276.7411 0003097 331.7783 028.2721 15.47133438589615
0 TITAN 3C TRANSTAGE DEB
1 01685U 65082AY  13286.37195601  .00042415  00000-0  80177-3 0  5351
2 01685 032.2769 269.7867 0002842 342.2332 017.8241 15.47218327589770
0 TITAN 3C TRANSTAGE DEB
1 01685U 65082AY  13288.11373113  .00069261  00000-0  12984-2 0  5360
2 01685 032.2772 258.0511 0002577 003.2386 356.8303 15.47378992590041
0 TITAN 3C TRANSTAGE DEB
1 01685U 65082AY  13288.30724863  .00063072  00000-0  11823-2 0  5379
2 01685 032.2772 256.7469 0002573 004.7345 355.3351 15.47400742590074
0 TITAN 3C TRANSTAGE DEB
1 01685U 65082AY  13289.27479715  .00058548  00000-0  10939-2 0  5389
2 01685 032.2774 250.2264 0002487 016.1607 343.9144 15.47509001590228
0 TITAN 3C TRANSTAGE DEB
1 01685U 65082AY  13290.24228242  .00061850  00000-0  11513-2 0  5395
2 01685 032.2773 243.7056 0002363 029.2655 330.8149 15.47605799590371
0 TITAN 3C TRANSTAGE DEB
1 01685U 65082AY  13291.27419691  .00054929  00000-0  10192-2 0  5402
2 01685 032.2771 236.7498 0002229 042.4629 317.6216 15.47719109590537
0 TITAN 3C TRANSTAGE DEB
1 01685U 65082AY  13293.14435459  .00053133  00000-0  97943-3 0  5417
2 01685 032.2770 224.1397 0001882 072.0002 288.0876 15.47912587590823
0 TITAN 3C TRANSTAGE DEB
1 01685U 65082AY  13294.17606596  .00057058  00000-0  10475-2 0  5428
2 01685 032.2767 217.1819 0001860 086.8374 273.2511 15.48017309590989
0 TITAN 3C TRANSTAGE DEB
1 01685U 65082AY  13296.11033340  .00061712  00000-0  11243-2 0  5432
2 01685 032.2760 204.1336 0001877 116.6581 243.4284 15.48221944591284
